YAOGAN 30 C             
1 42947U 17058C   21037.36903355  .00000239  00000-0  27188-4 0  9998
2 42947  35.0008 286.4303 0006230 202.5971 157.4453 14.89867365182947
INTELSAT 37E (IS-37E)   
1 42950U 17059A   21037.41651286 -.00000148  00000-0  00000-0 0  9992
2 42950   0.0166  98.3782 0002205 222.2544 308.0435  1.00270568 12434
BSAT-4A                 
1 42951U 17059B   21037.61353970 -.00000358  00000-0  00000-0 0  9997
2 42951   0.0542  54.1449 0003499 325.5143  87.9784  1.00269864 12180
VRSS-2                  
1 42954U 17060A   21037.50196489  .00000067  00000-0  17049-4 0  9991
2 42954  97.9052 114.3994 0018199 332.8415  27.1842 14.76141940179416
IRIDIUM 133             
1 42955U 17061A   21037.51299032  .00000087  00000-0  23838-4 0  9997
2 42955  86.3986 122.9787 0001920  87.2537 272.8878 14.34215563174320
IRIDIUM 100             
1 42956U 17061B   21037.50666429  .00000065  00000-0  16264-4 0  9996
2 42956  86.3983 122.9467 0002130  97.9729 262.1709 14.34217078174348
IRIDIUM 122             
1 42957U 17061C   21037.47494045  .00000066  00000-0  16446-4 0  9999
2 42957  86.3982 122.9560 0001748  84.4434 275.6961 14.34216220174325
IRIDIUM 129             
1 42958U 17061D   21037.50029947  .00000071  00000-0  18409-4 0  9996
2 42958  86.3992 122.9923 0002064  90.0793 270.0639 14.34214128174341
IRIDIUM 119             
1 42959U 17061E   21037.46860549  .00000064  00000-0  15791-4 0  9996
2 42959  86.3985 122.9905 0002049  87.6237 272.5194 14.34216954174355
IRIDIUM 107             
1 42960U 17061F   21037.48762384  .00000046  00000-0  94411-5 0  9995
2 42960  86.3985 122.9917 0001998  96.6235 263.5188 14.34216220174360
IRIDIUM 132             
1 42961U 17061G   21037.49397731  .00000067  00000-0  16731-4 0  9998
2 42961  86.3985 122.9796 0001865 100.4224 259.7182 14.34218153174369
IRIDIUM 136             
1 42962U 17061H   21037.52568447  .00000068  00000-0  17149-4 0  9992
2 42962  86.3986 122.9664 0002156  87.1782 272.9660 14.34218194174384
IRIDIUM 139             
1 42963U 17061J   21037.46225783  .00000063  00000-0  15348-4 0  9993
2 42963  86.3987 123.0235 0001943  94.2631 265.8787 14.34216932174386
IRIDIUM 125             
1 42964U 17061K   21037.51934163  .00000064  00000-0  15940-4 0  9998
2 42964  86.3989 123.0253 0001992  96.7984 263.3439 14.34218664174405
QZS-4 (MICHIBIKI-4)     
1 42965U 17062A   21037.22618344 -.00000328  00000-0  00000-0 0  9999
2 42965  40.8304   8.5279 0750356 269.0764  78.0183  1.00292814 12184
SES-11 (ECHOSTAR 105)   
1 42967U 17063A   21037.55620536 -.00000096  00000-0  00000-0 0  9996
2 42967   0.0155 101.9269 0002632 205.8345 284.3902  1.00271094 12161
SENTINEL-5P             
1 42969U 17064A   21037.54289426 -.00000024  00000-0  94739-5 0  9995
2 42969  98.7257 339.2696 0001048  83.9224 276.2072 14.19550325171964
KESTREL EYE IIM (KE2M)  
1 42982U 98067NE  21037.60607868  .00029022  00000-0  14797-3 0  9995
2 42982  51.6317 158.2721 0003542 282.8592  77.2014 15.81139795187967
KOREASAT 5A             
1 42984U 17067A   21037.51447887 -.00000366  00000-0  00000-0 0  9991
2 42984   0.0118 107.8967 0000715 159.1896 168.0820  1.00273441 11918
COSMOS 2523             
1 42986U 17037E   21037.55910556  .00000332  00000-0  41633-4 0  9995
2 42986  97.7271 100.2790 0077236 249.5444 109.7466 14.86782310177604
SKYSAT-C11              
1 42987U 17068A   21037.59664519  .00001542  00000-0  41823-4 0  9994
2 42987  97.2464 154.8758 0007997 289.3817  70.6564 15.39140972182080
SKYSAT-C10              
1 42988U 17068B   21037.58592613  .00001547  00000-0  42038-4 0  9993
2 42988  97.2505 154.7708 0002563   7.8684 352.2601 15.39087065182107
SKYSAT-C9               
1 42989U 17068C   21037.57204134  .00001556  00000-0  42217-4 0  9990
2 42989  97.2464 154.2485 0002351 121.6662 238.4814 15.39130927182292
SKYSAT-C8               
1 42990U 17068D   21037.56337402  .00000876  00000-0  24684-4 0  9998
2 42990  97.2504 155.1356 0000835  38.1611 321.9694 15.39096088182122
SKYSAT-C7               
1 42991U 17068E   21037.55128254  .00002017  00000-0  54249-4 0  9990
2 42991  97.2510 155.1388 0002108  87.3478 272.8009 15.39049583182129
SKYSAT-C6               
1 42992U 17068F   21037.54120465  .00001507  00000-0  41070-4 0  9997
2 42992  97.2528 155.3847 0002278 144.9876 215.1520 15.39041385182132
FLOCK 3M-4              
1 42997U 17068L   21037.53821995  .00002190  00000-0  97573-4 0  9995
2 42997  97.4293 149.6382 0015175  17.9598 342.2171 15.22418050181332
FLOCK 3M-2              
1 42998U 17068M   21037.56627698  .00003059  00000-0  13515-3 0  9991
2 42998  97.4147 147.9392 0013703  14.1837 345.9781 15.22404640181341
BEIDOU-3 M1             
1 43001U 17069A   21037.43612277 -.00000045  00000-0  00000-0 0  9996
2 43001  55.3047 128.3369 0009254 283.9503  46.9351  1.86231704 22156
BEIDOU-3 M2             
1 43002U 17069B   21037.37960777 -.00000044  00000-0  00000-0 0  9990
2 43002  55.3040 128.3734 0007576 308.6495  27.9712  1.86231505 22144
MOHAMMED VI-A           
1 43005U 17070A   21037.48513348  .00000050  00000-0  14240-4 0  9996
2 43005  97.9596 111.8903 0001528  83.4034 276.7350 14.77079930175134
FENGYUN 3D              
1 43010U 17072A   21037.48409826 -.00000008  00000-0  17003-4 0  9993
2 43010  98.7763 340.4200 0002338 106.6078 253.5352 14.19760153167407
HEAD-1                  
1 43011U 17072B   21037.50046532 -.00000090  00000-0 -18834-4 0  9993
2 43011  98.7894 354.0855 0011352  68.7035 291.5355 14.26541578168218
NOAA 20                 
1 43013U 17073A   21037.57557726  .00000003  00000-0  22016-4 0  9994
2 43013  98.7426 338.1427 0001302  76.1140 284.0181 14.19549664166873
BUCCANEER RMM           
1 43014U 17073B   21037.52751221  .00002271  00000-0  18282-3 0  9994
2 43014  97.7088 305.4687 0247135   8.5715 351.9601 14.80042173173752
MIRATA                  
1 43015U 17073C   21037.54740217  .00001527  00000-0  12171-3 0  9994
2 43015  97.7127 306.8288 0251498   4.8898 355.4683 14.80280352173849
MAKERSAT 0              
1 43016U 17073D   21037.25101814  .00001247  00000-0  10072-3 0  9994
2 43016  97.7164 306.6549 0254872   7.5667 352.9277 14.79666246173773
RADFXSAT (FOX-1B)       
1 43017U 17073E   21037.32498134  .00000981  00000-0  80859-4 0  9992
2 43017  97.7165 306.4600 0256129   8.4160 352.1225 14.79297698173738
DELLINGR (RBLE)         
1 43021U 98067NJ  21037.61605762  .00039699  00000-0  17782-3 0  9990
2 43021  51.6299 154.6240 0001866 265.7668  94.3122 15.83760266183789
JILIN-01-04             
1 43022U 17074A   21037.56204640 -.00000013  00000-0  30378-5 0  9991
2 43022  97.5218 133.2021 0007854 181.1228 293.6948 15.10116078177033
JILIN-01-05             
1 43023U 17074B   21037.51896782  .00000279  00000-0  20964-4 0  9993
2 43023  97.5224 133.2978 0007869 191.3609 292.5279 15.10122893177020
JILIN-01-06             
1 43024U 17074C   21037.60529113 -.00000230  00000-0 -10227-4 0  9995
2 43024  97.5227 133.3160 0010880 196.3603 275.2707 15.10119167177039
YAOGAN 30 D             
1 43028U 17075A   21037.42844192  .00000172  00000-0  20256-4 0  9993
2 43028  34.9956 166.5862 0003108 312.8540  47.1920 14.89860144174521
YAOGAN 30 E             
1 43029U 17075B   21037.47442080  .00000181  00000-0  21210-4 0  9990
2 43029  34.9952 165.9538 0005278 253.6516 106.3622 14.89869739174522
YAOGAN 30 F             
1 43030U 17075C   21037.58450603  .00000179  00000-0  21051-4 0  9994
2 43030  34.9957 165.0621 0003518  50.2524 309.8485 14.89862981174527
COSMOS 2524             
1 43032U 17076A   21037.47791495 -.00000036  00000-0  27984-4 0  9996
2 43032  67.1468 272.9828 0009108 243.3419 116.6736 13.97060105162313
LKW-1                   
1 43034U 17077A   21037.51215418  .00000885  00000-0  40029-4 0  9996
2 43034  97.3525 115.7942 0009427 136.3457 348.2393 15.23448746176805
ALCOMSAT 1              
1 43039U 17078A   21037.41520432 -.00000193  00000-0  00000-0 0  9990
2 43039   0.0424 211.0100 0002110 112.8623 297.5695  1.00272112 11666
LEMUR-2-ROCKETJONAH     
1 43041U 17071E   21037.18203182  .00010455  00000-0  17246-3 0  9994
2 43041  51.6351 334.8769 0002032  90.2546 269.8677 15.52885748181107
AEROCUBE 7B (OCSD B)    
1 43042U 17071F   21037.36914785  .00005143  00000-0  11116-3 0  9991
2 43042  51.6381 356.8593 0003727 170.9593 189.1462 15.46298070178538
AEROCUBE 7C (OCSD C)    
1 43043U 17071G   21037.57280868  .00004225  00000-0  93207-4 0  9995
2 43043  51.6377 355.9827 0003902 176.7871 183.3142 15.46191381178530
CHEFSAT                 
1 43044U 17071H   21037.22984827  .00014679  00000-0  22812-3 0  9991
2 43044  51.6371 332.3174 0003163 175.2776 184.8245 15.54180465178828
LEMUR-2-YONGLIN         
1 43045U 17071J   21037.53249590  .00014293  00000-0  22095-3 0  9992
2 43045  51.6369 327.6074 0002834 152.7363 207.3777 15.54352802178960
LEMUR-2-KEVIN           
1 43046U 17071K   21037.53844689  .00007598  00000-0  13484-3 0  9995
2 43046  51.6374 337.3643 0002947 161.3123 198.7975 15.51275256178835
LEMUR-2-BRIANDAVIE      
1 43047U 17071L   21037.54056919  .00009121  00000-0  15478-3 0  9997
2 43047  51.6356 336.4737 0001320 192.0717 168.0242 15.52266260178837
LEMUR-2-ROMACOSTE       
1 43048U 17071M   21037.54417373  .00009787  00000-0  16176-3 0  9997
2 43048  51.6362 332.8711 0001348 192.7897 167.3059 15.52914374178882
ASGARDIA 1              
1 43049U 17071N   21037.43873659  .00004553  00000-0  99955-4 0  9992
2 43049  51.6393 355.9420 0001632 181.0719 179.0265 15.46130130178523
ISARA                   
1 43050U 17071P   21037.54084100  .00009387  00000-0  15821-3 0  9990
2 43050  51.6349 335.7093 0001336 163.9843 196.1190 15.52418391178809
LEMUR-2-MCCULLAGH       
1 43051U 17071Q   21037.10244634  .00013307  00000-0  21744-3 0  9991
2 43051  51.6398 335.2718 0001722  59.0633 301.0526 15.52879981178765
